0 PEGASUS R/B
1 32766U 08017B   13282.48295333  .00011424  00000-0  42605-3 0  3450
2 32766 013.0022 021.0522 0248512 081.3830 004.4634 14.99313047298529
0 PEGASUS R/B
1 32766U 08017B   13285.48077251  .00010505  00000-0  38639-3 0  3462
2 32766 013.0014 359.3407 0249088 123.1823 345.4644 14.99360803298975
0 PEGASUS R/B
1 32766U 08017B   13287.40853755  .00012193  00000-0  45530-3 0  3471
2 32766 013.0026 345.3789 0248726 150.0555 311.0431 14.99394088299263
0 PEGASUS R/B
1 32766U 08017B   13288.33681983  .00016509  00000-0  63104-3 0  3489
2 32766 013.0032 338.6564 0248518 162.9979 281.7603 14.99417675299405
0 PEGASUS R/B
1 32766U 08017B   13289.40689639  .00015059  00000-0  57127-3 0  3492
2 32766 013.0033 330.9073 0248567 177.8836 297.9969 14.99443520299566
0 PEGASUS R/B
1 32766U 08017B   13291.40336131  .00015545  00000-0  59000-3 0  3505
2 32766 013.0038 316.4508 0248538 205.6585 275.1029 14.99492092299868
0 PEGASUS R/B
1 32766U 08017B   13293.19269948  .00016207  00000-0  61641-3 0  3515
2 32766 013.0042 303.4968 0248379 230.5471 214.4344 14.99537875300131
0 PEGASUS R/B
1 32766U 08017B   13294.26029725  .00018149  00000-0  69490-3 0  3529
2 32766 013.0042 295.7677 0248260 245.3838 217.7752 14.99566038300290
0 PEGASUS R/B
1 32766U 08017B   13296.18981779  .00019764  00000-0  76003-3 0  3531
2 32766 013.0038 281.7963 0247992 272.2008 194.4284 14.99624045300583
